Address,State,COUNTRY,Latitude,Longitude,City,State,County,Zip
Eglin AFB Site 2 Santa Rosa Island,Florida,United States,29.681312,-82.353862,Island Grove,FL,Alachua County,32654
Eglin Air Force Auxiliary Field 6,Florida,United States,26.5398,-81.43563,Felda,FL,Hendry County,33930
Eglin Air Force Auxiliary Field 3 Duke Fld,Florida,United States,0,0,,,,
Edwards AFB,California,United States,34.960825,-117.835384,Edwards,CA,Kern County,93523
Arnold,Tennessee,United States,35.4976,-86.0748,Arnold Afb,TN,Coffee County,37389
Tinker Aerospace Complex,Oklahoma,United States,0,0,,,,
Tinker Support Annex,Oklahoma,United States,0,0,,,,
Tinker AFB,Oklahoma,United States,0,0,,,,
Wright-Patt AFB,Ohio,United States,0,0,,,,
Hanscom AFB,Massachusetts,United States,42.45813,-71.27605,Hanscom Afb,MA,Middlesex County,1731
Avon Park AF Range,Florida,United States,0,0,,,,
Arbuckle Airfield,Florida,United States,0,0,,,,
Moody AFB,Georgia,United States,34.298707,-84.152971,Matt,GA,Forsyth County,30130
Poinsett Range,South Carolina,United States,0,0,,,,
Shaw AFB,South Carolina,United States,33.984599,-80.482584,Shaw A F B,SC,Sumter County,29152
Fort Fisher Recreation Site,North Carolina,United States,0,0,,,,
Seymour Johnson AFB,North Carolina,United States,35.282936,-79.107249,Johnsonville,NC,Harnett County,28326
Dare County Range,North Carolina,United States,35.393595,-79.907346,Troy,NC,Montgomery County,27371
Nellis Annex,Nevada,United States,0,0,,,,
Nellis AFB,Nevada,United States,36.239491,-115.025738,Nellis Afb,NV,Clark County,89191
Creech AFB,Nevada,United States,0,0,,,,
Fort Eustis,Virginia,United States,37.157438,-76.584469,Fort Eustis,VA,Newport News city,23604
Nellis Air Force Range,Nevada,United States,0,0,,,,
Offut AFB,Nebraska,United States,41.120236,-95.920947,Offutt A F B,NE,Sarpy County,68113
Saylor Creek Air Force Range,Idaho,United States,0,0,,,,
Mountain Home AFB,Idaho,United States,43.049628,-115.86561,Mountain Home A F B,ID,Elmore County,83648
Patrick AFB,Florida,United States,28.23809,-80.6079,Patrick Afb,FL,Brevard County,32925
Cape Canaveral Air Force Station,Florida,United States,0,0,,,,
Los Angeles Air Force Annex No4,California,United States,0,0,,,,
Los Angeles AFB,California,United States,33.973951,-118.248405,Los Angeles,CA,Los Angeles County,90001
Cheyenne Mountain AFS,Colorado,United States,0,0,,,,
Cape Cod Air Station,Massachusetts,United States,42.15652,-71.489592,,MA,,
Cavalier Asn,North Dakota,United States,48.79388,-97.62231,Cavalier,ND,Pembina County,58220
Clear Air Force Station,Alaska,United States,0,0,,,,
Dyess AFB,Texas,United States,32.4193,-99.83808,Dyess Afb,TX,Taylor County,79607
Barksdale AFB,Louisiana,United States,32.513749,-93.640362,Barksdale Afb,LA,Bossier Parish,71110
March ARB,California,United States,0,0,,,,
Norwalk 2,California,United States,33.906763,-118.076549,Norwalk,CA,Los Angeles County,90650
Dobbins ARB,Georgia,United States,0,0,,,,
Kirtland,New Mexico,United States,36.742972,-108.318698,Kirtland,NM,San Juan County,87417
Whiteman AFB,Missouri,United States,0,0,,,,
F E Warren AFB,Wyoming,United States,41.14025,-104.874531,Fe Warren Afb,WY,Laramie County,82005
Youngstown,Ohio,United States,41.017082,-80.802854,Youngstown,OH,Mahoning County,44501
Newington Defense Fuel Support Point,New Hampshire,United States,0,0,,,,
Ellsworth AFB Site 2,South Dakota,United States,44.15098,-103.09488,Ellsworth Afb,SD,Meade County,57706
Ellsworth AFB,South Dakota,United States,44.15098,-103.09488,Ellsworth Afb,SD,Meade County,57706
Malmstrom AFB,Montana,United States,47.500235,-111.300808,Malmstrom A F B,MT,Cascade County,59402
Laughlin AFB Aux 1,Texas,United States,29.35663,-100.78353,Laughlin A F B,TX,Val Verde County,78843
Laughlin AFB,Texas,United States,29.35663,-100.78353,Laughlin A F B,TX,Val Verde County,78843
Hurlburt Field,Florida,United States,30.422926,-86.698525,Hurlburt Field,FL,Okaloosa County,32544
Boles Annex,New Mexico,United States,0,0,,,,
Holloman AFB,New Mexico,United States,36.03837,-105.38362,Holman,NM,Mora County,87723
Bonito Lake System Annex,New Mexico,United States,33.1587,-105.85693,Bent,NM,Otero County,88314
Melrose Air Force Range,New Mexico,United States,34.50512,-103.564506,Melrose,NM,Curry County,88124
Cannon AFB,New Mexico,United States,0,0,,,,
Cannon AFB Site 2,New Mexico,United States,0,0,,,,
Travis AFB,California,United States,38.271218,-121.94123,Travis Afb,CA,Solano County,94535
Travis Annex  2,California,United States,0,0,,,,
USAF Academy Auxiliary Airfield,Colorado,United States,38.994252,-104.86375,U S A F Academy,CO,El Paso County,80840
USAF Academy,Colorado,United States,38.994252,-104.86375,U S A F Academy,CO,El Paso County,80840
The Farish Memorial Recreational Annex,Colorado,United States,0,0,,,,
Grand Forks AFB,North Dakota,United States,47.967909,-97.367534,Grand Forks Afb,ND,Grand Forks County,58204
Isabela Puerto Rico,Puerto Rico,Puerto Rico,0,0,,,,
Homestead ARB,Florida,United States,25.526889,-80.499812,Homestead,FL,Broward County,33031
Vandenberg Main Base,California,United States,34.708316,-120.467664,Vandenberg Village,CA,Santa Barbara County,93436
Pillar Point AFS,California,United States,0,0,,,,
Schriever AFB,Colorado,United States,0,0,,,,
Peterson AFB,Colorado,United States,0,0,,,,
Buckley AFB,Colorado,United States,0,0,,,,
Pittsburgh IAP (ARS),Pennsylvania,United States,40.47441,-79.950968,Pittsburgh,PA,Allegheny County,15201
Grissom ARB,Indiana,United States,40.780955,-86.016441,Grissom Arb,IN,Miami County,46971
Westover ARB,Massachusetts,United States,42.57926,-71.43784,Westford,MA,Middlesex County,1886
New Boston Air Station,New Hampshire,United States,42.97619,-71.69396,New Boston,NH,Hillsborough County,3070
Niagara Falls,New York,United States,43.095821,-79.040407,Niagara Falls,NY,Niagara County,14301
Tyndall AFB,Florida,United States,0,0,,,,
Davis Monthan AFB,Arizona,United States,0,0,,,,
Little Rock AFB,Arkansas,United States,34.746905,-92.280049,Little Rock,AR,Pulaski County,72201
Langley AFB,Virginia,United States,38.955944,-77.178313,Langley Forest,VA,Fairfax County,22103
Dover AFB,Delaware,United States,39.125261,-75.481823,Dover Afb,DE,Kent County,19902
Fairchild AFB,Washington,United States,47.633161,-117.654603,Fairchild Air Force Base,WA,Spokane County,99011
White Bluff,Washington,United States,0,0,,,,
Cusick Survival Training Site,Washington,United States,48.510409,-117.348383,Cusick,WA,Pend Oreille County,99119
Bellows,Hawaii,United States,0,0,,,,
Lackland Training Annex,Texas,United States,32.776671,-97.009389,Lakeland Heights,TX,Dallas County,75050
Lackland AFB,Texas,United States,32.776671,-97.009389,Lakeland Heights,TX,Dallas County,75050
Keesler AFB,Mississippi,United States,0,0,,,,
Goodfellow AFB,Texas,United States,31.43076,-100.40652,Goodfellow Afb,TX,Tom Green County,76908
Maxwell AFB,Alabama,United States,33.215157,-87.483406,Maxwell,AL,Tuscaloosa County,35404
Maxwell AFB Gunter Annex,Alabama,United States,0,0,,,,
The Barry M Goldwater Air Force Range,Arizona,United States,0,0,,,,
Gila Bend Air Force Auxiliary Field,Arizona,United States,0,0,,,,
Columbus Auxiliary Airfield,Mississippi,United States,33.393933,-88.504719,Columbus,MS,Lowndes County,39701
Luke AFB,Arizona,United States,33.54062,-112.3728,Luke Afb,AZ,Maricopa County,85309
Luke Waste Annex,Arizona,United States,0,0,,,,
Columbus AFB,Mississippi,United States,33.393933,-88.504719,Columbus,MS,Lowndes County,39701
Luke Air Force Auxiliary Field No 1,Arizona,United States,0,0,,,,
Sheppard AFB,Texas,United States,33.969524,-98.509016,Sheppard Afb,TX,Archer County,76311
Altus AFB,Oklahoma,United States,34.598197,-99.440839,Altus Afb,OK,Jackson County,73523
Vance AFB,Oklahoma,United States,34.763974,-96.871961,Vanoss,OK,Pontotoc County,74820
Kegelman Air Force Auxiliary Field,Oklahoma,United States,36.56753,-102.79353,Felt,OK,Cimarron County,73937
Eareckson AS,Alaska,United States,0,0,,,,
King Salmon Airport,Alaska,United States,58.7546,-156.50633,King Salmon,AK,Bristol Bay Borough,99613
Fort Richardson,Alaska,United States,61.259092,-149.690318,Fort Richardson,AK,Anchorage Municipality,99505
Elmendorf AFB,Alaska,United States,61.257409,-149.804165,Elmendorf Afb,AK,Anchorage Municipality,99506
Birch Lake Recreation Annex,Alaska,United States,0,0,,,,
Eielson AFB,Alaska,United States,64.663265,-147.05442,Eielson Afb,AK,Fairbanks North Star Borough,99702
Yukon Weapons Range,Alaska,United States,0,0,,,,
Luis Munoz Marin IAP,Puerto Rico,Puerto Rico,0,0,,,,
Jacksonville IAP,Florida,United States,30.337538,-81.768622,Jacksonville,FL,Duval County,32099
Tucson IAP,Arizona,United States,32.217975,-110.970869,Tucson,AZ,Pima County,85701
Montgomery Regional Airport ANGB,Alabama,United States,0,0,,,,
Jackson IAP Thompson Field,Mississippi,United States,31.331709,-90.7848,Smithdale,MS,Amite County,39664
Robins AFB,Georgia,United States,0,0,,,,
Sky Harbor IAP,Arizona,United States,0,0,,,,
McEntire Joint National Guard Base,South Carolina,United States,0,0,,,,
Channel Islands ANG Station,California,United States,40.026261,-123.490301,Island Mountain,CA,Trinity County,95440
Memphis IAP,Tennessee,United States,35.169255,-89.990415,Memphis,TN,Shelby County,37501
Charlotte/Douglas IAP,North Carolina,United States,0,0,,,,
Fort Smith Map,Arkansas,United States,35.366188,-94.416458,Fort Smith,AR,Sebastian County,72901
Will Rogers World Airport,Oklahoma,United States,0,0,,,,
McGhee Tyson Airport,Tennessee,United States,0,0,,,,
Nashville IAP,Tennessee,United States,36.165688,-86.778098,Nashville,TN,Davidson County,37201
Tulsa IAP,Oklahoma,United States,36.039147,-95.868667,Tulsa,OK,Tulsa County,74101
Fresno Yosemite International ANG,California,United States,36.8411,-119.801015,Fresno,CA,Fresno County,93650
Louisville IAP-Standiford FL Site 1,Kentucky,United States,38.188962,-85.676819,Louisville,KY,Jefferson County,40201
Yeager Airport,West Virginia,United States,0,0,,,,
Smoky Hill ANG Range,Kansas,United States,0,0,,,,
Forbes Field ANG,Kansas,United States,37.047299,-95.447475,Valeda,KS,Labette County,67337
Martin State Airport,Maryland,United States,0,0,,,,
Atlantic City IAP,New Jersey,United States,39.356661,-74.44167,Atlantic City,NJ,Atlantic County,8401
Reno Tahoe IAP,Nevada,United States,39.525749,-119.813051,Reno,NV,Washoe County,89501
New Castle Airport,Delaware,United States,39.592895,-75.651466,New Castle,DE,New Castle County,19720
Rosecrans MAP (139AG),Missouri,United States,0,0,,,,
Rickenbacker,Ohio,United States,0,0,,,,
Springfield Beckley,Ohio,United States,39.927059,-83.813228,Springfield,OH,Clark County,45501
Pittsburgh IAP (ANG),Pennsylvania,United States,40.47441,-79.950968,Pittsburgh,PA,Allegheny County,15201
Salt Lake City IAP,Utah,United States,40.756095,-111.900719,Salt Lake City,UT,Salt Lake County,84101
Site 1 Cantonement Area,Ohio,United States,0,0,,,,
Francis S Gabreski Airport,New York,United States,0,0,,,,
Stewart IAP,New York,United States,40.719269,-73.688464,Stewart Manor,NY,Nassau County,11530
Quonset State Airport,Rhode Island,United States,0,0,,,,
Otis ANG Base,Massachusetts,United States,42.213156,-73.090434,Otis,MA,Berkshire County,1253
Bradley IAP,Connecticut,United States,0,0,,,,
W K Kellogg,Michigan,United States,0,0,,,,
Sioux Gateway Airport (ANG),Iowa,United States,0,0,,,,
Selfridge ANGB,Michigan,United States,0,0,,,,
Pease ANGB,New Hampshire,United States,0,0,,,,
Hancock Field,New York,United States,42.398503,-73.626548,Valatie,NY,Columbia County,12184
Truax ANGB,Wisconsin,United States,44.630907,-89.709392,,WI,,
Boise Air Terminal,Idaho,United States,43.603768,-116.272921,Boise,ID,Ada County,83701
Joe Foss Field,South Dakota,United States,45.84774,-103.362052,Vessey,SD,Harding County,57755
Volk ANGB,Wisconsin,United States,44.630907,-89.709392,,WI,,
Minn-St Paul,Minnesota,United States,44.951483,-93.090649,Saint Paul,MN,Ramsey County,55101
Alpena County Regional Airport,Michigan,United States,0,0,,,,
Portland IAP ANG,Oregon,United States,45.507856,-122.690794,Portland,OR,Multnomah County,97201
Hector IAP,North Dakota,United States,0,0,,,,
Great Falls IAP,Montana,United States,47.511219,-111.2755,Great Falls,MT,Cascade County,59401
EWVRA Shepherd Field,West Virginia,United States,0,0,,,,
Hulman Fld,Indiana,United States,38.157551,-87.090278,Heilman,IN,Warrick County,47523
General Wayne A Downing Peoria IAP,Illinois,United States,40.693137,-89.589847,Peoria,IL,Peoria County,61601
Des Moines IAP,Iowa,United States,41.672687,-93.572173,Des Moines,IA,Polk County,50301
Toledo/Exp Airport,Ohio,United States,0,0,,,,
Duluth IAP,Minnesota,United States,47.005566,-92.001934,Duluth,MN,St. Louis County,55801
MacDill AFB,Florida,United States,0,0,,,,
Ellington Field,Texas,United States,36.433821,-100.139117,Follett,TX,Lipscomb County,79034
Gulfport-Biloxi Regional Airport (ANG),Mississippi,United States,0,0,,,,
Birmingham Airport,Alabama,United States,33.456412,-86.801904,Birmingham,AL,Jefferson County,35201
McConnell AFB,Kansas,United States,37.692236,-97.337545,McConnell Afb,KS,Sedgwick County,67221
NGA Arnold Site,Missouri,United States,38.43283,-90.37762,Arnold,MO,Jefferson County,63010
Scott AFB,Illinois,United States,0,0,,,,
St Louis Air Force Station,Missouri,United States,0,0,,,,
Capital Airport,Illinois,United States,0,0,,,,
Dix,New Jersey,United States,0,0,,,,
McGuire,New Jersey,United States,0,0,,,,
Lakehurst,New Jersey,United States,40.01456,-74.31126,Lakehurst,NJ,Ocean County,8733
Lincoln Map,Nebraska,United States,40.865142,-96.823133,Lincoln,NE,Lancaster County,68501
Barnes Map (ANG),Massachusetts,United States,0,0,,,,
Gen Mitchell IAP,Wisconsin,United States,0,0,,,,
Burlington IAP,Vermont,United States,44.476622,-73.209998,Burlington,VT,Chittenden County,5401
Kelly Field Annex,Texas,United States,33.362612,-96.618879,Kelly,TX,Collin County,75003
Kelly AFB,Texas,United States,33.362612,-96.618879,Kelly,TX,Collin County,75003
JBSA Sam Houston,Texas,United States,29.813142,-95.309789,Houston,TX,Harris County,77001
Medical Center Annex,Texas,United States,31.780781,-94.235334,Center,TX,Shelby County,75935
Randolph AFB,Texas,United States,33.484594,-96.254127,Randolph,TX,Fannin County,75475
Seguin Auxiliary Field,Texas,United States,36.433821,-100.139117,Follett,TX,Lipscomb County,79034
Camp Bullis Training Annex,Texas,United States,32.44264,-96.229977,Kemp,TX,Kaufman County,75143
Canyon Lake Recreation Annex,Texas,United States,29.87622,-98.26167,Canyon Lake,TX,Comal County,78133
Fort George G Meade,Maryland,United States,39.114553,-76.765249,Fort George G Meade,MD,Anne Arundel County,20755
Fort Leavenworth,Kansas,United States,39.346798,-94.931329,Fort Leavenworth,KS,Leavenworth County,66027
Fort Riley,Kansas,United States,39.113738,-96.837821,Fort Riley,KS,Geary County,66442
Wheeler Army Airfield,Hawaii,United States,21.475456,-158.03516,Wheeler Army Airfield,HI,Honolulu County,96854
Fort Campbell KY,Kentucky,United States,36.657253,-87.458858,Fort Campbell,KY,Christian County,42223
Fort Wainwright,Alaska,United States,64.832821,-147.64418,Fort Wainwright,AK,Fairbanks North Star Borough,99703
Parks Reserve Forces Tng Area,California,United States,0,0,,,,
Fort Polk,Louisiana,United States,31.56668,-92.396314,Pollock,LA,Grant Parish,71467
Fort Knox,Kentucky,United States,37.899466,-85.952833,Fort Knox,KY,Hardin County,40121
Blue Grass Army Depot,Kentucky,United States,0,0,,,,
Fort Belvoir,Virginia,United States,38.714562,-77.167886,Fort Belvoir,VA,Fairfax County,22060
Schenectady ANG MAP,New York,United States,42.833261,-74.058015,Schenectady,NY,Schenectady County,12301
Fort Gordon,Georgia,United States,32.881267,-83.302945,Gordon,GA,Wilkinson County,31031
Target B-19,Nevada,United States,39.331093,-116.615147,,NV,,
Fort Sill,Oklahoma,United States,34.663978,-98.437482,Fort Sill,OK,Comanche County,73503
Redstone Arsenal,Alabama,United States,34.683875,-86.647643,Redstone Arsenal,AL,Madison County,35809
Fort Jackson,South Carolina,United States,33.32542,-81.78789,Jackson,SC,Aiken County,29831
Watervliet Arsenal,New York,United States,0,0,,,,
Def Gen Supply Center,Virginia,United States,0,0,,,,
Fort Benning GA,Georgia,United States,32.392337,-84.931457,Fort Benning,GA,Muscogee County,31905
Naval Air Station Patuxent River,Maryland,United States,38.285279,-76.415708,Patuxent River,MD,St. Mary's County,20670
Fort Hood,Texas,United States,31.134891,-97.775614,Fort Hood,TX,Bell County,76544
Fort Carson,Colorado,United States,38.737494,-104.788862,Fort Carson,CO,El Paso County,80913
Fort McCoy,Wisconsin,United States,0,0,,,,
Fort Drum,New York,United States,44.032457,-75.754468,Fort Drum,NY,Jefferson County,13602
Hunter Army Airfield,Georgia,United States,0,0,,,,
Fort Huachuca,Arizona,United States,31.559131,-110.318682,Fort Huachuca,AZ,Cochise County,85613
Fort Rucker AL,Alabama,United States,31.327347,-85.737811,Fort Rucker,AL,Dale County,36362
Fort A P Hill,Virginia,United States,37.134946,-77.736402,Ford,VA,Dinwiddie County,23850
Fort Stewart,Georgia,United States,31.870154,-81.631076,Fort Stewart,GA,Liberty County,31314
Aberdeen Proving Ground,Maryland,United States,39.477062,-76.120824,Aberdeen Proving Ground,MD,Harford County,21005
Dugway Proving Ground,Utah,United States,40.270806,-112.689833,Dugway,UT,Tooele County,84022
Fort Buchanan,Puerto Rico,Puerto Rico,0,0,,,,
Schofield Barracks Military Reservation,Hawaii,United States,21.48676,-158.051525,Schofield Barracks,HI,Honolulu County,96857
Tobyhanna Army Depot,Pennsylvania,United States,41.17703,-75.41796,Tobyhanna,PA,Monroe County,18466
Beale AFB,California,United States,39.111453,-121.360957,Beale Afb,CA,Yuba County,95903
Eglin AFB (Eglin Main and Reservation),Florida,United States,30.45907,-86.55026,Eglin Afb,FL,Okaloosa County,32542
NTC and Fort Irwin,California,United States,35.262453,-116.696561,Fort Irwin,CA,San Bernardino County,92310
Fort Hamilton,New York,United States,40.618715,-74.033196,Fort Hamilton,NY,Kings County,11209
White Sands Missile Range NM,New Mexico,United States,32.383871,-106.493675,White Sands Missile Range,NM,Doña Ana County,88002
Holston AAP,Tennessee,United States,36.579272,-82.193744,Holston Hills,TN,Sullivan County,37620
Iowa AAP,Iowa,United States,0,0,,,,
Yakima Training Center,Washington,United States,46.722625,-120.406039,Yakima,WA,Yakima County,98901
Red River Army Depot,Texas,United States,0,0,,,,
Grand Prairie Reserve Complex,Texas,United States,32.776671,-97.009389,Grand Prairie,TX,Dallas County,75050
Fort Bragg,North Carolina,United States,35.140193,-78.987942,Fort Bragg,NC,Cumberland County,28307
Defense Supply Center Columbus,Ohio,United States,40.100924,-83.013402,Columbus,OH,Franklin County,43085
Fort Lewis,Washington,United States,0,0,,,,
Fort Leonard Wood,Missouri,United States,37.767687,-92.111975,Fort Leonard Wood,MO,Pulaski County,65473
McAlester AAP,Oklahoma,United States,34.985768,-95.790791,McAlester,OK,Pittsburg County,74501
Barrigada,Guam,Guam,13.444257,144.786297,Barrigada,GU,Guam,96913
Picatinny Arsenal,New Jersey,United States,40.867331,-74.578269,Picatinny Arsenal,NJ,Morris County,7806
Fort Bliss,Texas,United States,31.810651,-106.404743,Fort Bliss,TX,El Paso County,79906
Green River Test Complex UT,Utah,United States,39.020075,-110.213864,Green River,UT,Emery County,84525
NG Atlanta - Confederate Ave,Georgia,United States,33.844371,-84.47405,Atlanta,GA,Fulton County,30301
NG Duluth NG Armory,Minnesota,United States,47.005566,-92.001934,Duluth,MN,St. Louis County,55801
NG Camp Joseph T Robinson,Arkansas,United States,36.169246,-94.358822,Robinson,AR,Benton County,72761
NG Camp Fogarty Tng Site,Rhode Island,United States,0,0,,,,
NG MTA Camp Crowder Neosho,Missouri,United States,36.904539,-94.372328,Neosho,MO,Newton County,64850
NG Collegeville FMS 4,Pennsylvania,United States,40.18566,-75.45157,Collegeville,PA,Montgomery County,19426
NG Bismarck RJB Complex,North Dakota,United States,46.816035,-100.700296,Bismarck,ND,Burleigh County,58501
NG Camp Niantic,Connecticut,United States,41.323447,-72.215623,Niantic,CT,New London County,6357
NG Camp Hartell,Connecticut,United States,0,0,,,,
NG Stones Ranch Military Res,Connecticut,United States,0,0,,,,
NG Martindale - AASF,Texas,United States,29.839448,-97.850842,Martindale,TX,Caldwell County,78655
NG Orchard Mates Boise,Idaho,United States,43.603768,-116.272921,Boise,ID,Ada County,83701
NG Orchard Combat Training Center,Idaho,United States,0,0,,,,
NG Bend Cotef,Oregon,United States,44.082037,-121.227125,Bend,OR,Deschutes County,97701
NG Biak Training Center COUTES,Oregon,United States,0,0,,,,
NG Camp Dodge Johnston TS,Iowa,United States,41.714435,-93.732559,Johnston,IA,Polk County,50131
NG Camp Minden Training Site,Louisiana,United States,32.725217,-93.312837,Minden,LA,Webster Parish,71055
NG Beightler Armory,Ohio,United States,0,0,,,,
NG Auburn Training Site,Maine,United States,44.087422,-70.243848,Auburn,ME,Androscoggin County,4210
NG Hollis Plains Training Site,Maine,United States,0,0,,,,
NG Buckeye TS,Arizona,United States,33.37032,-112.58378,Buckeye,AZ,Maricopa County,85326
NG Camp Navajo,Arizona,United States,35.124191,-109.538166,Navajo,AZ,Apache County,86509
NG Hollidaysburg Readiness Center,Pennsylvania,United States,40.432059,-78.364965,Hollidaysburg,PA,Blair County,16648
NG Thunderbird Youth Academy,Oklahoma,United States,0,0,,,,
NG Camp Gruber,Oklahoma,United States,33.76955,-96.35415,Kemp,OK,Bryan County,74747
NG Fort Chaffee MTC,Arkansas,United States,0,0,,,,
NG Pelham Range Training Site - Fort McClellan,Alabama,United States,0,0,,,,
NG MTA Camp Clark Nevada,Missouri,United States,37.83921,-94.35467,Nevada,MO,Vernon County,64772
NG Nashville,Tennessee,United States,36.165688,-86.778098,Nashville,TN,Davidson County,37201
NG Oglethorpe Armory,Georgia,United States,32.327479,-84.101472,Oglethorpe,GA,Macon County,31068
NG Carville Gillis Long Center,Louisiana,United States,30.226792,-93.215443,Gillis,LA,Calcasieu Parish,70601
NG Jackson Bks,Louisiana,United States,30.808675,-91.198736,Jackson,LA,East Feliciana Parish,70748
NG Esler Field,Louisiana,United States,29.900262,-89.894926,Violet,LA,St. Bernard Parish,70092
NG Arden Hills Army Training Site,Minnesota,United States,43.525185,-96.358365,Hills,MN,Rock County,56138
NG Bangor Training Site,Maine,United States,44.848517,-68.850405,Bangor,ME,Penobscot County,4401
NG Fort Indiantown Gap,Pennsylvania,United States,40.362359,-76.569599,Fort Indiantown Gap,PA,Lebanon County,17003
NG Springfield AVCRAD (New),Missouri,United States,37.25807,-93.343673,Springfield,MO,Greene County,65801
NG MTA Camp Shelby,Mississippi,United States,33.957757,-90.74504,Shelby,MS,Bolivar County,38774
NG CTA Camp Mccain,Mississippi,United States,0,0,,,,
NG Fort Worth - Shoreview,Texas,United States,32.771419,-97.291484,Fort Worth,TX,Tarrant County,76101
NG Alcantra Armory Complex,Alaska,United States,0,0,,,,
NG Rickenbacker (MTA),Ohio,United States,40.41493,-82.711998,,OH,,
NG RW Shepherd Hope Hull,Alabama,United States,32.206441,-86.380464,Hope Hull,AL,Montgomery County,36043
NG Hammond Airport,Louisiana,United States,30.533587,-90.455381,Hammond,LA,Tangipahoa Parish,70401
NG Camp Beauregard,Louisiana,United States,0,0,,,,
NG MTA Clarks Hill Reservation,South Carolina,United States,33.623057,-82.132655,Clarks Hill,SC,McCormick County,29821
NG Camp Ashland,Nebraska,United States,41.0375,-96.36085,Ashland,NE,Saunders County,68003
NG Greenlief TS/UTES 01,Nebraska,United States,0,0,,,,
NG Bethel ARM FMS,Alaska,United States,60.79222,-161.75583,Bethel,AK,Bethel Census Area,99559
NG Papago Military Reservation,Arizona,United States,0,0,,,,
NG Picacho Aviation TS,Arizona,United States,32.689594,-111.531036,Picacho,AZ,Pinal County,85241
NG Grayling Airfield,Michigan,United States,44.691777,-84.612941,Grayling,MI,Crawford County,49738
NG Santa Fe - Onate Complex TS,New Mexico,United States,0,0,,,,
NG Bergstrom - (Abia),Texas,United States,31.434703,-99.281824,,TX,,
NG Fort Wolters,Texas,United States,0,0,,,,
NG Camp Bowie (State),Texas,United States,33.530011,-97.856849,Bowie,TX,Montague County,76230
NG River Road Training Site,Delaware,United States,0,0,,,,
NG TS BBTS,Delaware,United States,38.998538,-75.441662,,DE,,
NG SMD,Alabama,United States,32.739632,-86.843459,,AL,,
NG General Lucius D Clay National Guard Center,Georgia,United States,34.167895,-84.851983,Center,GA,Bartow County,30120
NG Macon Readiness Center,Georgia,United States,34.167895,-84.851983,Center,GA,Bartow County,30120
NG GUARNG Barrigada Complex,Guam,Guam,13.444257,144.786297,Barrigada,GU,Guam,96913
NG HMO3 (Snake Creek TS),Florida,United States,30.848192,-85.231403,Sink Creek,FL,Jackson County,32446
NG Springfield (TS Cp Lincoln),Illinois,United States,40.162779,-89.398361,Lincoln,IL,Logan County,62656
NG Camp Ripley,Minnesota,United States,0,0,,,,
NG Silver Bell Army Heliport,Arizona,United States,32.383404,-111.500669,Silver Bell,AZ,Pima County,85238
NG Florence Military Reservation,Arizona,United States,32.982354,-111.424943,Florence,AZ,Pinal County,85232
NG Lane County AFRC FMS 5,Oregon,United States,0,0,,,,
NG Camp Villere,Louisiana,United States,0,0,,,,
NG Muscatatuck Urban Training Center,Indiana,United States,40.531266,-86.169537,Center,IN,Howard County,46901
NG Knightstown,Indiana,United States,39.7956,-85.52636,Knightstown,IN,Henry County,46148
NG Camp Atterbury,Indiana,United States,0,0,,,,
NG Indianapolis 38 ID,Indiana,United States,39.775092,-86.13216,Indianapolis,IN,Marion County,46201
NG Camp Adair Corvallis,Oregon,United States,44.639931,-123.275969,Corvallis,OR,Benton County,97330
NG MTA Camp Rilea,Oregon,United States,43.54154,-119.50384,Riley,OR,Harney County,97758
NG Camp Withycombe Clackamas,Oregon,United States,45.415038,-122.499461,Clackamas,OR,Clackamas County,97015
NG Shelbyville,Indiana,United States,39.511568,-85.791993,Shelbyville,IN,Shelby County,46176
NG MTA Ft Wm Henry Harrison,Montana,United States,45.70355,-111.78548,Harrison,MT,Madison County,59735
NG Helena Aviation RC- AASF- C12,Montana,United States,46.527398,-112.21037,Helena,MT,Lewis and Clark County,59601
NG Cumming,Georgia,United States,34.293049,-84.176166,Cumming,GA,Forsyth County,30028
NG Beauregard Training Range,Louisiana,United States,0,0,,,,
NG MTA Camp Curtis Guil,Massachusetts,United States,0,0,,,,
NG Ayer,Massachusetts,United States,42.566573,-71.575135,Ayer,MA,Middlesex County,1432
NG Lansing Joint Forces Readiness Center,Michigan,United States,47.100599,-88.483267,Senter,MI,Houghton County,49922
NG Camp Perry Joint Training Center,Ohio,United States,40.06396,-81.529009,Center,OH,Guernsey County,43725
NG Edgemeade TS Mtn Home,Idaho,United States,0,0,,,,
NG AASF02 Birmingham,Alabama,United States,33.456412,-86.801904,Birmingham,AL,Jefferson County,35201
NG MTC-H Camp Roberts,California,United States,0,0,,,,
NG ITC Camp San Luis Obisbo,California,United States,35.265573,-120.62122,San Luis Obispo,CA,San Luis Obispo County,93401
NG Camp Ravenna Joint Military Training Center,Ohio,United States,40.06396,-81.529009,Center,OH,Guernsey County,43725
NG Marseilles (MTA Tng Area),Illinois,United States,41.33087,-88.70813,Marseilles,IL,LaSalle County,61341
NG McConnelsville Training Site,Ohio,United States,39.737292,-81.915415,Mc Connelsville,OH,Morgan County,43756
NG Training Site,New Hampshire,United States,0,0,,,,
NG CTC Fort Custer Trng Center,Michigan,United States,47.100599,-88.483267,Senter,MI,Houghton County,49922
NG TS AFRC Los Alamitos,California,United States,33.795012,-118.062692,Los Alamitos,CA,Orange County,90720
NG Camp Sherman Joint Training Center,Ohio,United States,40.06396,-81.529009,Center,OH,Guernsey County,43725
NG McNary Field Salem AASF,Oregon,United States,44.94878,-123.003655,Salem,OR,Marion County,97301
NG Ft Allen Rq 177,Puerto Rico,Puerto Rico,0,0,,,,
NG Bog Brook Training Site,Maine,United States,0,0,,,,
NG TS Ike Skelton Jefferson City,Missouri,United States,38.494029,-92.165194,Jefferson City,MO,Cole County,65101
NG TS Clark Natl Forest Wapp,Missouri,United States,39.295025,-92.374105,Clark,MO,Randolph County,65243
NG Macon TS,Missouri,United States,39.773979,-92.451742,Macon,MO,Macon County,63552
NG Fort McClellan ARNG Tng Center,Alabama,United States,34.264543,-87.587802,Center,AL,Winston County,35565
NG MTA Limestone Hills,Montana,United States,45.477717,-109.902402,Limestone,MT,Stillwater County,59061
NG Cambridge Springs,Pennsylvania,United States,41.803393,-80.059383,Cambridge Springs,PA,Crawford County,16403
NG Johnson City Gray,Tennessee,United States,36.419826,-82.476535,Gray,TN,Washington County,37615
NG MTA Camp Edwards,Massachusetts,United States,41.657052,-70.543918,Camp Edwards,MA,Barnstable County,2542
NG St Cloud NG Armory,Minnesota,United States,45.519196,-94.330619,Saint Cloud,MN,Stearns County,56301
NG Las Cruces,New Mexico,United States,32.290052,-106.753893,Las Cruces,NM,Doña Ana County,88001
NG Rio Rancho TS,New Mexico,United States,35.93873,-104.195805,Roy,NM,Harding County,87743
NG Raleigh,North Carolina,United States,35.773632,-78.634457,Raleigh,NC,Wake County,27601
NG MTC-H Camp Grayling,Michigan,United States,44.691777,-84.612941,Grayling,MI,Crawford County,49738
NG Sparta Armory,Illinois,United States,38.108083,-89.726486,Sparta,IL,Randolph County,62286
NG TS Ethan Allen Range,Vermont,United States,0,0,,,,
NG Jackson County AFRC,West Virginia,United States,0,0,,,,
NG Norman CSMS,Oklahoma,United States,35.208566,-97.44451,Norman,OK,Cleveland County,73019
NG Muskogee AFRC,Oklahoma,United States,35.70582,-95.50025,Muskogee,OK,Muskogee County,74401
NG Baton Rouge AFRC,Louisiana,United States,30.44924,-91.185607,Baton Rouge,LA,East Baton Rouge Parish,70801
NG St Cloud AASF,Minnesota,United States,45.519196,-94.330619,Saint Cloud,MN,Stearns County,56301
NG Rochester NGA and OMS 2,Minnesota,United States,44.075285,-92.516916,Rochester,MN,Olmsted County,55901
NG Rosemount NG Armory,Minnesota,United States,44.73941,-93.12577,Rosemount,MN,Dakota County,55068
NG Mead TS/FMS 06/Utes 02,Nebraska,United States,41.22778,-96.4878,Mead,NE,Saunders County,68041
NG Lincoln AASF/Readiness Center,Nebraska,United States,42.597304,-97.866951,Center,NE,Knox County,68724
NG Grand Island AASF/RC,Nebraska,United States,40.87227,-98.368698,Grand Island,NE,Hall County,68801
NG Gulfport AVCRAD,Mississippi,United States,30.382966,-89.102426,Gulfport,MS,Harrison County,39501
NG Westminster Training Site,Vermont,United States,43.082635,-72.474882,Westminster,VT,Windham County,5158
NG Camp Grafton,North Dakota,United States,48.368876,-97.437265,Grafton,ND,Walsh County,58237
NG Oklahoma Military Department,Oklahoma,United States,35.491608,-97.562817,Oklahoma City,OK,Oklahoma County,73101
NG Lexington AASF No 1,Oklahoma,United States,35.057992,-97.26999,Lexington,OK,Cleveland County,73051
NG Sea Girt NJ NGTC,New Jersey,United States,40.13206,-74.03458,Sea Girt,NJ,Monmouth County,8750
NG Lawrenceville,New Jersey,United States,40.29733,-74.729605,Lawrenceville,NJ,Mercer County,8648
NG Camp Swift,Texas,United States,31.62018,-94.483262,Swift,TX,Nacogdoches County,75961
NG Floyd Edsall Training Center,Nevada,United States,0,0,,,,
NG Elkins AFRC,West Virginia,United States,38.92594,-79.84673,Elkins,WV,Randolph County,26241
NG Camp Murray,Washington,United States,47.11678,-122.56866,Camp Murray,WA,Pierce County,98430
NG Anthony Cometa Complex,Nevada,United States,0,0,,,,
NG Youngstown Tng Site,New York,United States,0,0,,,,
NG Camp Smith Tng Site,New York,United States,40.922326,-72.637078,Smithtown,NY,Suffolk County,11745
NG New Castle Readiness Center/FMS 9,Pennsylvania,United States,40.010352,-79.88588,Century,PA,Fayette County,15417
NG VTS Catoosa,Georgia,United States,0,0,,,,
NG VTS Smyrna,Tennessee,United States,35.959541,-86.53159,Smyrna,TN,Rutherford County,37167
NG Spring City Readiness Center,Pennsylvania,United States,40.17677,-75.54769,Spring City,PA,Chester County,19475
NG MTA Camp Santiago,Puerto Rico,Puerto Rico,0,0,,,,
NG Camp Pendleton SMR,Virginia,United States,0,0,,,,
NG Williamstown,West Virginia,United States,39.367796,-81.455899,Williamstown,WV,Wood County,26187
NG Jackson Airport Armory,Tennessee,United States,35.570424,-88.862742,Jackson,TN,Madison County,38301
NG VTS Milan,Tennessee,United States,35.920312,-88.813982,Milan,TN,Gibson County,38358
NG Camp Bowie - Musgrave (Fed),Texas,United States,33.530011,-97.856849,Bowie,TX,Montague County,76230
NG Camp Mabry,Texas,United States,33.613442,-95.118279,Mabry,TX,Red River County,75426
NG Camp Maxey,Texas,United States,33.703436,-95.751353,Maxey,TX,Lamar County,75421
NG Saginaw,Texas,United States,32.860128,-97.363907,Saginaw,TX,Tarrant County,76179
NG MTA-L Camp Williams,Utah,United States,0,0,,,,
NG Saint George/FMS 5B,Utah,United States,37.185679,-113.609837,Saint George,UT,Washington County,84770
NG Bremerton,Washington,United States,47.606478,-122.634712,Bremerton,WA,Kitsap County,98310
NG Fort Pickett ARNG MTC,Virginia,United States,0,0,,,,
NG Volkstone,West Virginia,United States,0,0,,,,
NG CTC Camp Dawson-Kingwood,West Virginia,United States,39.471673,-79.67596,Kingwood,WV,Preston County,26537
NG MTCH Camp Guernsey,Wyoming,United States,42.256819,-104.786912,Guernsey,WY,Platte County,82214
NG AASF Byrd Field,Virginia,United States,0,0,,,,
NG Mitchell Complex,South Dakota,United States,43.69591,-98.086401,Mitchell,SD,Davison County,57301
NG Ethan Allen AFB MTA,Vermont,United States,0,0,,,,
NG TS Camp Johnson,Vermont,United States,44.642603,-72.735911,Johnson,VT,Lamoille County,5656
NG Camp Williams Tomah MTA,Wisconsin,United States,43.983826,-90.473336,Tomah,WI,Monroe County,54660
NG Ft Ruger,Hawaii,United States,0,0,,,,
NG Kalaeloa,Hawaii,United States,19.828171,-155.49504,,HI,,
NG TS Keaukaha Mil Res,Hawaii,United States,19.730278,-155.046389,Keaukaha,HI,Hawaii County,96720
NG Kansas,Kansas,United States,0,0,,,,
NG Salina KS Training Center,Kansas,United States,0,0,,,,
NG Frankfort Boone NG Center,Kentucky,United States,37.11767,-85.703791,Center,KY,Metcalfe County,42214
NG WH Ford Regional Tng Ctr,Kentucky,United States,37.968496,-84.157766,Ford,KY,Clark County,40320
NG MTA Gunpowder Military Reservation,Maryland,United States,39.380158,-76.295468,Gunpowder,MD,Harford County,21010
NG MTA Camp Fretterd,Maryland,United States,0,0,,,,
NG Havre De Grace Military Res,Maryland,United States,39.560095,-76.15517,Havre De Grace,MD,Harford County,21078
NG MTA Camp Butner,North Carolina,United States,36.13209,-78.75667,Butner,NC,Granville County,27509
NG West Camp,South Dakota,United States,44.0686,-102.44572,Wasta,SD,Pennington County,57791
NG Sioux Falls Benson Rd Complex,South Dakota,United States,0,0,,,,
NG Camp Rapid,South Dakota,United States,0,0,,,,
MCLB Albany,Georgia,United States,31.560674,-84.176751,Albany,GA,Dougherty County,31701
TBR Main,Georgia,United States,32.629579,-83.423511,,GA,,
MCAS Beaufort,South Carolina,United States,32.424353,-80.565343,Beaufort,SC,Beaufort County,29901
MCSF Blount Island (FL),Florida,United States,29.681312,-82.353862,Island Grove,FL,Alachua County,32654
Point of Marsh Target,North Carolina,United States,0,0,,,,
ALF Bogue,North Carolina,United States,0,0,,,,
OLF Atlantic,North Carolina,United States,34.88489,-76.34047,Atlantic,NC,Carteret County,28511
Oak Grove,North Carolina,United States,35.981534,-78.820562,Oak Grove,NC,Durham County,27703
MCAS Cherry Point,North Carolina,United States,34.903793,-76.899976,Cherry Point,NC,Craven County,28533
MCB Camp Lejeune (West Site),North Carolina,United States,0,0,,,,
MCB Camp Lejeune (East Site),North Carolina,United States,34.95682,-79.750056,East Side Park,NC,Richmond County,28379
MCRD Beaufort,South Carolina,United States,32.424353,-80.565343,Beaufort,SC,Beaufort County,29901
MCLB Barstow,California,United States,34.980295,-116.964449,Barstow,CA,San Bernardino County,92311
Yermo Area,California,United States,34.90498,-116.82031,Yermo,CA,San Bernardino County,92398
MCAS Miramar,California,United States,37.492996,-122.456643,Miramar,CA,San Mateo County,94018
Fallbrook California,California,United States,33.390477,-117.209427,Fallbrook,CA,San Diego County,92028
MCB Camp Pendleton,California,United States,33.387723,-117.444758,Camp Pendleton,CA,San Diego County,92055
Former NTC,California,United States,0,0,,,,
MCRD San Diego,California,United States,32.724103,-117.170912,San Diego,CA,San Diego County,92101
Twentynine Palms,California,United States,34.141356,-115.621176,Twentynine Palms,CA,San Bernardino County,92277
MCAS Yuma,Arizona,United States,32.701461,-114.657232,Yuma,AZ,Yuma County,85364
Barry Goldwater Range,Arizona,United States,0,0,,,,
Choc Mt Air Gnry Rng,California,United States,36.57485,-121.840727,Monterey,CA,Monterey County,93940
Marine Corps Museum,Virginia,United States,36.832324,-81.597841,Marion,VA,Smyth County,24354
MCB Quantico,Virginia,United States,38.52602,-77.322803,Quantico,VA,Prince William County,22134
Jacksonville FL Maint,Florida,United States,30.337538,-81.768622,Jacksonville,FL,Duval County,32099
Brooklyn NY,New York,United States,40.68863,-74.018244,New York,NY,New York County,10004
Syracuse MCRC,New York,United States,43.047934,-76.17792,Syracuse,NY,Onondaga County,13204
Pearl City Annex,Hawaii,United States,21.40094,-157.96653,Pearl City,HI,Honolulu County,96782
MCB Camp Smith,Hawaii,United States,0,0,,,,
MC Trng Area Bellows,Hawaii,United States,0,0,,,,
Puuloa-Oahu,Hawaii,United States,20.035356,-155.377961,Paauilo,HI,Hawaii County,96776
MCB Hawaii (Kaneohe Bay),Hawaii,United States,21.40877,-157.7899,Kaneohe,HI,Honolulu County,96744
Craney Island,Virginia,United States,0,0,,,,
Northwest Chesapeake VA,Virginia,United States,36.563725,-76.199476,Chesapeake,VA,Chesapeake city,23322
NAVSUPPACT Mechanicsburg PA,Pennsylvania,United States,40.182917,-77.004599,Mechanicsburg,PA,Cumberland County,17055
NAVSUPPACT Norfolk NSY,Virginia,United States,36.895911,-76.208521,Norfolk,VA,Norfolk city,23501
NNSY South Gate,Virginia,United States,0,0,,,,
NNSY St Helena,Virginia,United States,0,0,,,,
St Juliens Creek East,Virginia,United States,0,0,,,,
Dam Neck,Virginia,United States,0,0,,,,
Lafayette Rvr Complex,Virginia,United States,37.237248,-80.211122,Elliston,VA,Montgomery County,24087
Yorktown Fuel Depot,Virginia,United States,0,0,,,,
Naval Weapons Station Yorktown,Virginia,United States,37.230251,-76.524359,Yorktown,VA,York County,23690
NAS Oceana VA,Virginia,United States,37.825138,-76.80135,Ozeana,VA,Essex County,22454
Waterfront,New Jersey,United States,39.723037,-74.836939,Waterford Works,NJ,Camden County,8089
Naval Weapons Station Earle NJ,New Jersey,United States,39.773448,-75.006278,Erial,NJ,Camden County,8081
Det Phil Pny Annex,Pennsylvania,United States,40.902496,-77.833451,,PA,,
Cheatham Annex,Virginia,United States,36.830785,-79.412735,Chatham,VA,Pittsylvania County,24531
NAVSUPPACT Hampton Roads VA,Virginia,United States,38.855946,-78.590846,Readus,VA,Shenandoah County,22824
SDA Area,Virginia,United States,0,0,,,,
Fire Fighters School,Virginia,United States,0,0,,,,
JEBLCFS East,Virginia,United States,0,0,,,,
Det Philadelphia PA,Pennsylvania,United States,40.001811,-75.11787,Philadelphia,PA,Philadelphia County,19019
JNTEXPBASE Little Creek FS VA,Virginia,United States,0,0,,,,
ALF Fentress Chesapke,Virginia,United States,36.749991,-76.218759,Chesapeake,VA,Chesapeake city,23320
NAVSUBASE New London CT,Connecticut,United States,41.35565,-72.09952,New London,CT,New London County,6320
NAVMEDCEN Portsmouth VA,Virginia,United States,36.811498,-76.367715,Portsmouth,VA,Portsmouth city,23701
Elizabeth Rvr Channel,Virginia,United States,36.837313,-76.150514,Elizabeth River Shores,VA,Virginia Beach city,23462
NSA Saratoga Springs NY,New York,United States,40.68863,-74.018244,New York,NY,New York County,10004
JEBLCFS Wallops Island VA,Virginia,United States,37.918556,-75.490518,Wallops Island,VA,Accomack County,23337
Fort Adams RI,Rhode Island,United States,0,0,,,,
NCTS Cutler VLF Area,Maine,United States,44.65758,-67.20387,Cutler,ME,Washington County,4626
NSY Portsmouth,Maine,United States,0,0,,,,
Redington Township,Maine,United States,0,0,,,,
Gould Island RI,Rhode Island,United States,0,0,,,,
Glenview,Illinois,United States,42.075201,-87.821026,Glenview,IL,Cook County,60025
GL Camp JPJ,Illinois,United States,39.695589,-88.185321,Kemp,IL,Douglas County,61910
Naval Support Activity Crane,Indiana,United States,38.894879,-86.900174,Crane,IN,Martin County,47522
Bratenahl,Ohio,United States,0,0,,,,
Naval Station Newport RI,Rhode Island,United States,41.487552,-71.327084,Newport,RI,Newport County,2840
NAVSTA Norfolk VA,Virginia,United States,0,0,,,,
JBAB Anacostia Bolling,District of Columbia,United States,0,0,,,,
Naval Support Activity Wash,District of Columbia,United States,0,0,,,,
Webster Field,Maryland,United States,0,0,,,,
Solomons Island MD,Maryland,United States,38.33687,-76.46181,Solomons,MD,Calvert County,20688
Arlington Service Ctr,Virginia,United States,38.842325,-77.089736,Arlington,VA,Arlington County,22206
Naval Research Lab,District of Columbia,United States,38.904103,-77.017229,,DC,,
NSWC Carderock,Maryland,United States,38.946658,-76.674494,,MD,,
NAVSUPPACT Bethesda MD,Maryland,United States,39.143979,-77.207617,Bethesda,MD,Montgomery County,20813
Naval Observatory,District of Columbia,United States,38.904103,-77.017229,,DC,,
Tenjo Vista,Guam,Guam,0,0,,,,
Sasa Valley,Guam,Guam,0,0,,,,
Allegany Ballistics Lab,West Virginia,United States,0,0,,,,
Rock Island Arsenal,Illinois,United States,41.517253,-90.539929,Rock Island Arsenal,IL,Rock Island County,61299
Nimitz Hill,Guam,Guam,0,0,,,,
Magazine Reservoir Naval Magazine,Guam,Guam,0,0,,,,
"NAVBASE Guam, Naval Magazine",Guam,Guam,0,0,,,,
NAVBASE Guam,Guam,Guam,13.438296,144.77295,,GU,,
Barrigada,Guam,Guam,13.444257,144.786297,Barrigada,GU,Guam,96913
Apra Heights,Guam,Guam,13.438296,144.77295,,GU,,
Naval Magazine,Guam,Guam,0,0,,,,
Andy South,Guam,Guam,0,0,,,,
Saufley Field,Florida,United States,26.5398,-81.43563,Felda,FL,Hendry County,33930
NAS Pensacola FL,Florida,United States,30.428781,-87.222516,Pensacola,FL,Escambia County,32501
Subase Kings Bay GA,Georgia,United States,30.790547,-81.559737,Kings Bay,GA,Camden County,31547
Corry Station,Florida,United States,0,0,,,,
CBC Gulfport MS,Mississippi,United States,30.382966,-89.102426,Gulfport,MS,Harrison County,39501
OLF Bronson,Florida,United States,29.44774,-82.64233,Bronson,FL,Levy County,32621
Woolmarket (De Soto),Mississippi,United States,30.467697,-88.995868,Wool Market,MS,Harrison County,39532
Keyport NUWC,Washington,United States,47.698025,-122.625529,Keyport,WA,Kitsap County,98345
NAS Whidbey Island WA,Washington,United States,46.21405,-119.175728,Island View,WA,Benton County,99336
Shipyard Puget Sound,Washington,United States,0,0,,,,
Naval Base Kitsap Bremerton WA,Washington,United States,47.568126,-122.646482,Bremerton,WA,Kitsap County,98312
OLF Coupeville,Washington,United States,48.1894,-122.66765,Coupeville,WA,Island County,98239
Bangor WA,Washington,United States,46.644269,-123.116525,Bunker,WA,Lewis County,98532
Marysville WA,Washington,United States,48.049576,-122.161951,Marysville,WA,Snohomish County,98270
Bayview Idaho,Idaho,United States,47.982174,-116.549408,Bayview,ID,Kootenai County,83803
CNI NAVMAG Indian Island,Washington,United States,46.21405,-119.175728,Island View,WA,Benton County,99336
NAVSTA Everett WA,Washington,United States,47.988661,-122.199795,Everett,WA,Snohomish County,98201
Jim Creek,Washington,United States,47.407324,-120.5758,,WA,,
Manchester,Washington,United States,47.53864,-122.492613,Manchester,WA,Kitsap County,98353
Sea Plane Base,Washington,United States,47.762622,-120.657315,Plain,WA,Chelan County,98826
NAVWPNSYSTRAFAC Boardman,Oregon,United States,45.83986,-119.70058,Boardman,OR,Morrow County,97818
NARL Barrow Camp Tr1,Alaska,United States,71.32436,-156.68329,Barrow,AK,North Slope Borough,99723
Fort Sheridan,Illinois,United States,42.255073,-87.818268,Fort Sheridan,IL,Lake County,60037
Naval Station Great Lakes IL,Illinois,United States,42.309272,-87.85427,Great Lakes,IL,Lake County,60088
Naval Support Activity Panama City,Florida,United States,30.159737,-85.660922,Panama City,FL,Bay County,32401
NAS Meridian MS,Mississippi,United States,32.381605,-88.663489,Meridian,MS,Lauderdale County,39301
Dixie Target Range,Texas,United States,28.88331,-97.71305,Runge,TX,Karnes County,78151
FLC Fuel Depot Heckscher,Florida,United States,0,0,,,,
NSWC Carderock Div,Tennessee,United States,0,0,,,,
Yankee Target Range,Texas,United States,28.88331,-97.71305,Runge,TX,Karnes County,78151
NAVSTA Mayport FL,Florida,United States,30.389189,-81.404408,Mayport,FL,Duval County,32227
NAS Kingsville TX,Texas,United States,27.422876,-97.84068,Kingsville,TX,Kleberg County,78363
NAS Jacksonville FL,Florida,United States,30.337538,-81.768622,Jacksonville,FL,Duval County,32099
ALF Orange,Texas,United States,30.071743,-93.864976,Orange,TX,Orange County,77630
NAVSUPPACT Midsouth Memphis TN,Tennessee,United States,35.169255,-89.990415,Memphis,TN,Shelby County,37501
Northside Mid-South,Tennessee,United States,0,0,,,,
NAS Corpus Christi TX,Texas,United States,27.674946,-97.278473,Corpus Christi,TX,Nueces County,78418
OLF Bravo,Mississippi,United States,0,0,,,,
Pentagon Building Site,Virginia,United States,0,0,,,,
Fort Lee,Virginia,United States,37.23503,-77.33279,Fort Lee,VA,Dinwiddie County,23801
Fort Myer,Virginia,United States,0,0,,,,
Letterkenny Army Depot,Pennsylvania,United States,0,0,,,,
Anniston Army Depot,Alabama,United States,33.64916,-85.879642,Anniston,AL,Calhoun County,36201
Fort Campbell TN,Tennessee,United States,0,0,,,,
Arlington National Cemetery,Virginia,United States,0,0,,,,
Pine Bluff Arsenal,Arkansas,United States,34.208962,-91.985946,Pine Bluff,AR,Jefferson County,71601
Fort Hunter Liggett,California,United States,39.873214,-123.721407,Leggett,CA,Mendocino County,95585
Pinon Canyon,Colorado,United States,38.433334,-104.607473,Pinon,CO,Pueblo County,81008
Lake Of The Ozarks Recreation,Missouri,United States,37.77032,-92.3035,Laquey,MO,Pulaski County,65534
England Authority,Louisiana,United States,0,0,,,,
Allen Stagefield AL,Alabama,United States,0,0,,,,
Brown 4b Stagefield AL,Alabama,United States,0,0,,,,
Cairns Basefield AL,Alabama,United States,0,0,,,,
Goldberg Stagefield AL,Alabama,United States,0,0,,,,
Highbluff Stagefield AL,Alabama,United States,31.156565,-85.731323,Highbluff,AL,Geneva County,36344
Hunt Stagefield AL,Alabama,United States,0,0,,,,
Louisville Stagefield AL,Alabama,United States,31.785579,-85.551104,Louisville,AL,Barbour County,36048
Runkle Stagefield AL,Alabama,United States,0,0,,,,
Shell Basefield AL,Alabama,United States,0,0,,,,
Skelly Stagefield AL,Alabama,United States,32.739632,-86.843459,,AL,,
Stinson 5AB Stagefield AL,Alabama,United States,34.785921,-87.611417,Steenson Hollow,AL,Colbert County,35661
Tac X Stagefield AL,Alabama,United States,32.739632,-86.843459,,AL,,
Toth Stagefield AL,Alabama,United States,32.739632,-86.843459,,AL,,
Grant Training Annex,Washington,United States,0,0,,,,
Fort Lesley J McNair,District of Columbia,United States,0,0,,,,
Military Ocean Tml Sunny Point,North Carolina,United States,0,0,,,,
Military Ocean Terminal Concord,California,United States,37.953672,-122.022872,Concord,CA,Contra Costa County,94518
Presidio of Monterey,California,United States,36.57485,-121.840727,Monterey,CA,Monterey County,93940
Pueblo Chemical Depot,Colorado,United States,38.293234,-104.536493,Pueblo,CO,Pueblo County,81001
Sierra Army Depot,California,United States,0,0,,,,
Kahuku Tng Area,Hawaii,United States,21.68152,-157.94072,Kahuku,HI,Honolulu County,96731
Makua Mil Reserve,Hawaii,United States,0,0,,,,
Tripler Army Medical Center,Hawaii,United States,0,0,,,,
Aliamanu Military Reservation,Hawaii,United States,19.828171,-155.49504,,HI,,
Dillingham Mil Res,Hawaii,United States,0,0,,,,
Fort De Russy,Hawaii,United States,0,0,,,,
Fort Shafter,Hawaii,United States,24.859832,-168.021815,Fort Shafter,HI,Honolulu County,96858
Helemano Military Reservation,Hawaii,United States,0,0,,,,
USA Field Station Kunia,Hawaii,United States,21.463,-158.06385,Kunia,HI,Honolulu County,96759
Waianae Kai Military Reservation,Hawaii,United States,21.437389,-158.181356,Waianae,HI,Honolulu County,96792
Kawaihae Mil Reserve,Hawaii,United States,0,0,,,,
Kilauea Mil Reserve,Hawaii,United States,0,0,,,,
Stewart Annex,New York,United States,40.724895,-73.658021,Garden City,NY,Nassau County,11530
Yuma Proving Ground,Arizona,United States,32.701461,-114.657232,Yuma,AZ,Yuma County,85364
West Point Military Reservation,New York,United States,0,0,,,,
Joliet USARC/JTA,Illinois,United States,41.509668,-88.180211,Joliet,IL,Will County,60431
W Silver Spring Complex,Wisconsin,United States,0,0,,,,
Blossom Point Research Facility,Maryland,United States,0,0,,,,
US Army Adelphi Laboratory Center,Maryland,United States,0,0,,,,
Defense Distrib Depot Susq,Pennsylvania,United States,0,0,,,,
Fort Benning AL,Alabama,United States,0,0,,,,
Camp Mackall,North Carolina,United States,0,0,,,,
Rivanna Station,Virginia,United States,37.941296,-79.276332,Raphine,VA,Rockbridge County,24472
Detroit Arsenal,Michigan,United States,42.347021,-83.060184,Detroit,MI,Wayne County,48201
Fort Detrick,Maryland,United States,0,0,,,,
Fort Detrick Forest Glen Annex,Maryland,United States,39.457054,-76.228844,Forest Greens,MD,Harford County,21001
Fort Detrick Glen Haven Annex,Maryland,United States,0,0,,,,
Devens Reserve Forces Tng Area,Massachusetts,United States,42.54364,-71.61479,Devens,MA,Worcester County,1434
Fort Greely,Alaska,United States,63.941202,-145.57398,Fort Greely,AK,Southeast Fairbanks Census Area,98733
Hawthorne Army Depot,Nevada,United States,38.52557,-118.62738,Hawthorne,NV,Mineral County,89415
Us Army Joint Sys Mfg CtrLima,Ohio,United States,40.41493,-82.711998,,OH,,
Lake City AAP,Missouri,United States,39.110283,-94.255225,Lake City,MO,Jackson County,64016
Milan AAP,Tennessee,United States,35.920312,-88.813982,Milan,TN,Gibson County,38358
Scranton AAP,Pennsylvania,United States,41.401881,-75.637626,Scranton,PA,Lackawanna County,18501
Radford AAP,Virginia,United States,37.119732,-80.556541,Radford,VA,Radford city,24141
Seward Recreation Area,Alaska,United States,60.25281,-149.402123,Seward,AK,Kenai Peninsula Borough,99664
Fort Monmouth Main Post,New Jersey,United States,40.314531,-74.041654,Fort Monmouth,NJ,Monmouth County,7703
Fort Monroe,Virginia,United States,37.018012,-76.304391,Fort Monroe,VA,Hampton city,23651
Carlisle Barracks,Pennsylvania,United States,40.20148,-77.18887,Carlisle,PA,Cumberland County,17013
US Army Garrison Selfridge,Michigan,United States,0,0,,,,
Fort Benjamin Harrison,Indiana,United States,0,0,,,,
Indiana Army Ammunition Plant,Indiana,United States,39.444565,-86.960667,Poland,IN,Clay County,47868
Jefferson Proving Ground,Indiana,United States,40.279481,-86.590003,Jefferson,IN,Clinton County,46041
Joliet AAP Elwood,Illinois,United States,41.679871,-88.05379,Romeoville,IL,Will County,60446
Destin Moreno Point,Florida,United States,30.661155,-86.594479,Destin,FL,Okaloosa County,32540
Savanna Depot Act,Illinois,United States,42.09447,-90.15679,Savanna,IL,Carroll County,61074
Badger AAP,Wisconsin,United States,0,0,,,,
Twin Cities AAP,Minnesota,United States,0,0,,,,
Longhorn AAP,Texas,United States,0,0,,,,
Lone Star AAP (BRAC 2005),Texas,United States,32.925231,-94.704906,Lone Star,TX,Morris County,75668
Rocky Mountain Arsenal,Colorado,United States,0,0,,,,
Cornhusker AAP,Nebraska,United States,0,0,,,,
Tooele Army Depot South,Utah,United States,0,0,,,,
Fort Wingate Depot Activity,New Mexico,United States,0,0,,,,
Kipapa Ammo Storage Site,Hawaii,United States,19.828171,-155.49504,,HI,,
Camp Frank D Merrill,Georgia,United States,32.269087,-81.390667,Marlow,GA,Effingham County,31312
Pupukea Paalaa Uka Mil Road,Hawaii,United States,21.664167,-158.053611,Pupukea,HI,Honolulu County,96712
Riverbank AAP,California,United States,37.729282,-120.942905,Riverbank,CA,Stanislaus County,95367
UTTR - North,Utah,United States,0,0,,,,
Hill AFB,Utah,United States,41.120219,-111.989813,Hill Afb,UT,Davis County,84056
Point Arena Air Force Station,California,United States,0,0,,,,
McClellan AFB,California,United States,38.666653,-121.389613,McClellan Afb,CA,Sacramento County,95652
Minot AFB,North Dakota,United States,48.42429,-101.319942,Minot Afb,ND,Ward County,58704
JB Andrews,Maryland,United States,38.806207,-76.875551,Andrews Air Force Base,MD,Prince George's County,20762
Ozol Defense Fuel Support Point,California,United States,40.467923,-123.168637,Peanut,CA,Trinity County,96041
Charleston AFB,South Carolina,United States,32.892396,-80.076202,Charleston Afb,SC,Charleston County,29404
Joint Base Charleston North Yard,South Carolina,United States,0,0,,,,
Charleston Defense Fuel Support Point,South Carolina,United States,0,0,,,,
Joint Base Charleston Naval Weapons Station,South Carolina,United States,32.892396,-80.076202,Charleston Afb,SC,Charleston County,29404
Joint Base Charleston Short Stay,South Carolina,United States,0,0,,,,
North Air Force Auxiliary Field,South Carolina,United States,33.61571,-81.10204,North,SC,Orangeburg County,29112
Bangor IAP,Maine,United States,44.848517,-68.850405,Bangor,ME,Penobscot County,4401
Cheyenne Regional Airport,Wyoming,United States,0,0,,,,
Savannah/Hilton Head IAP,Georgia,United States,31.288232,-85.065207,Hilton,GA,Early County,31723
Imperial Beach NOLF,California,United States,32.578991,-117.117351,Imperial Beach,CA,San Diego County,91932
Silver Strand South,California,United States,34.152783,-119.218442,Silver Strand,CA,Ventura County,93035
CNIC PMRF Barking Sands HI,Hawaii,United States,0,0,,,,
Kamokala Ridge,Hawaii,United States,0,0,,,,
Makaha Ridge,Hawaii,United States,21.469444,-158.2175,Makaha,HI,Honolulu County,96792
San Pedro Fuel Depot,California,United States,33.753088,-118.253053,San Pedro,CA,Los Angeles County,90731
Aiea,Hawaii,United States,21.39065,-157.927829,Aiea,HI,Honolulu County,96701
Ewa,Hawaii,United States,20.24232,-155.83323,Hawi,HI,Hawaii County,96719
Ford Island,Hawaii,United States,0,0,,,,
JBPHH Pearl Harbor HI,Hawaii,United States,21.349028,-157.93508,Pearl Harbor,HI,Honolulu County,96860
Honolulu,Hawaii,United States,24.859832,-168.021815,Honolulu,HI,Honolulu County,96801
CSO Barbers Point HI,Hawaii,United States,0,0,,,,
Pearl City,Hawaii,United States,21.40094,-157.96653,Pearl City,HI,Honolulu County,96782
Wahiawa,Hawaii,United States,21.5324,-158.047735,Wahiawa,HI,Honolulu County,96786
Waipahu,Hawaii,United States,21.399548,-158.015151,Waipahu,HI,Honolulu County,96797
NAS Lemoore CA,California,United States,36.268194,-119.817274,Lemoore,CA,Kings County,93245
NAF El Centro,California,United States,32.770275,-115.598602,El Centro,CA,Imperial County,92243
Holtville Carrier LS,California,United States,32.867317,-115.374769,Holtville,CA,Imperial County,92250
NAVOBSSTA Flagstaff AZ,Arizona,United States,35.287661,-111.639303,Flagstaff,AZ,Coconino County,86001
Target 101 Shade Tree,California,United States,0,0,,,,
ALF Cabaniss,Texas,United States,0,0,,,,
ALF Waldron,Texas,United States,0,0,,,,
NALF Goliad,Texas,United States,28.664092,-97.460854,Goliad,TX,Goliad County,77963
NAS Fallon NV,Nevada,United States,39.479393,-118.296879,Fallon,NV,Churchill County,89406
Target B-16,Nevada,United States,39.331093,-116.615147,,NV,,
Target B-17,Nevada,United States,39.331093,-116.615147,,NV,,
Target B-20,Nevada,United States,39.331093,-116.615147,,NV,,
OLF Whitehouse,Florida,United States,30.31635,-81.846215,Whitehouse,FL,Duval County,32220
Vieques West PR,Puerto Rico,Puerto Rico,0,0,,,,
NAS JRB New Orleans LA,Louisiana,United States,0,0,,,,
NAS Key West FL,Florida,United States,24.557053,-81.780989,Key West,FL,Monroe County,33040
Dredgers Key-Sigsbee,Florida,United States,0,0,,,,
Naval Hospital,Florida,United States,28.45743,-82.409148,,FL,,
Truman Annex,Florida,United States,0,0,,,,
Trumbo Point Annex,Florida,United States,0,0,,,,
Sewage Evaporation Pond,California,United States,40.467923,-123.168637,Peanut,CA,Trinity County,96041
NAS Whiting Field Milton FL,Florida,United States,30.792885,-86.985834,Milton,FL,Santa Rosa County,32570
Barin Field,Alabama,United States,32.671798,-86.025021,Floyd,AL,Elmore County,36024
NOLF Brewton,Alabama,United States,31.129427,-87.096126,Brewton,AL,Escambia County,36426
NOLF Evergreen,Alabama,United States,31.489241,-87.052004,Evergreen,AL,Conecuh County,36401
NOLF Holley,Florida,United States,30.347061,-87.113185,Holley,FL,Santa Rosa County,32561
NOLF Santa Rosa,Florida,United States,30.25218,-82.27289,Sanderson,FL,Baker County,32087
NOLF Silverhill,Alabama,United States,30.527068,-87.735,Silverhill,AL,Baldwin County,36576
NOLF Spencer,Florida,United States,0,0,,,,
NOLF Summerdale,Alabama,United States,30.4877,-87.69971,Summerdale,AL,Baldwin County,36580
NOLF Wolf,Alabama,United States,0,0,,,,
Naval Support Activity Orlando,Florida,United States,28.545179,-81.373291,Orlando,FL,Orange County,32801
NOTU Cape Canaveral,Florida,United States,28.394642,-80.614323,Cape Canaveral,FL,Brevard County,32920
NMIC Suitland,Maryland,United States,38.834912,-76.912745,Suitland,MD,Prince George's County,20746
NAVBASE Coronado,California,United States,32.699235,-117.209642,Coronado,CA,San Diego County,92118
Amphib Base Coronado East,California,United States,32.699235,-117.209642,Coronado,CA,San Diego County,92118
Amphib Base Coronado West,California,United States,32.699235,-117.209642,Coronado,CA,San Diego County,92118
Camp Michael Monsoor,California,United States,0,0,,,,
Camp Morena,California,United States,33.917517,-117.157813,Moreno,CA,Riverside County,92360
San Clemente IS NALF,California,United States,33.42362,-117.606843,San Clemente,CA,Orange County,92672
Warner Springs Rts,California,United States,33.28226,-116.63363,Warner Springs,CA,San Diego County,92086
Agana,Guam,Guam,13.438296,144.77295,,GU,,
Dandan,Guam,Guam,13.438296,144.77295,,GU,,
Finegayan South,Guam,Guam,0,0,,,,
Harmon,Guam,Guam,0,0,,,,
Marbo,Guam,Guam,0,0,,,,
Naval Hospital,Guam,Guam,13.438296,144.77295,,GU,,
Tanguisson Point,Guam,Guam,0,0,,,,
NAVBASE Point Loma,California,United States,39.220724,-121.641635,Lomo,CA,Sutter County,95953
Harbor Drive,California,United States,0,0,,,,
Old Town Site 1,California,United States,0,0,,,,
SPAWARS South,California,United States,0,0,,,,
NAVBASE San Diego CA,California,United States,32.724103,-117.170912,San Diego,CA,San Diego County,92101
Balboa Hospital,California,United States,37.155177,-119.543418,,CA,,
Broadway Complex,California,United States,0,0,,,,
Dryside,California,United States,35.187133,-117.885359,California City,CA,Kern County,93504
Mission Gorge Rec Area,California,United States,0,0,,,,
National City,California,United States,32.671194,-117.084353,National City,CA,San Diego County,91950
NAVBASE Ventura Cty Point Mugu CA,California,United States,33.247969,-119.506102,Point Mugu Nawc,CA,Ventura County,93042
Port Hueneme,California,United States,34.106896,-119.099535,Port Hueneme,CA,Ventura County,93041
San Nicolas Island,California,United States,40.026261,-123.490301,Island Mountain,CA,Trinity County,95440
Santa Cruz Island,California,United States,37.052748,-122.111126,Santa Cruz,CA,Santa Cruz County,95060
NAVSUPPFAC Beaufort SC,South Carolina,United States,32.424353,-80.565343,Beaufort,SC,Beaufort County,29901
NAVSUPPACT Annapolis,Maryland,United States,38.98775,-76.5528,Annapolis,MD,Anne Arundel County,21401
Chesapeake Bay Detach,Maryland,United States,0,0,,,,
Gambrills,Maryland,United States,39.06705,-76.66524,Gambrills,MD,Anne Arundel County,21054
NAVACAD North Severn,Maryland,United States,39.1328,-76.69253,Severn,MD,Anne Arundel County,21144
Upper Yard Annapolis,Maryland,United States,38.98775,-76.5528,Annapolis,MD,Anne Arundel County,21401
NAVSUPPACT Monterey CA,California,United States,36.57485,-121.840727,Monterey,CA,Monterey County,93940
NAVPMOSSP Magna Utah,Utah,United States,40.699401,-112.088875,Magna,UT,Salt Lake County,84044
NAVPMOSSP Mtn View,California,United States,0,0,,,,
Navy Annex,California,United States,33.80644,-117.13731,Nuevo,CA,Riverside County,92567
NAVWPNSTA Seal Beach,California,United States,33.74141,-118.10479,Seal Beach,CA,Orange County,90740
Long Beach Fuel Complex,California,United States,33.804309,-118.200957,Long Beach,CA,Los Angeles County,90801
Norco,California,United States,33.752886,-116.055617,Norco,CA,Riverside County,91760
NAWS China Lake,California,United States,38.25047,-121.509397,Locke,CA,Sacramento County,95690
NSA Andersen,Guam,Guam,13.562134,144.926373,Andersen Air Force Base,GU,Guam,96910
Potts Tank Farm,Guam,Guam,0,0,,,,
Santa Rosa Parcel B,Guam,Guam,0,0,,,,
Tumon Tank Farm,Guam,Guam,0,0,,,,
Tumon,Guam,Guam,0,0,,,,
NSF Indian Head,Maryland,United States,38.60512,-77.17554,Indian Head,MD,Charles County,20640
Pumpkin Neck,Virginia,United States,37.227619,-81.008418,Pumpkin Center,VA,Bland County,24315
Stump Neck Area,Maryland,United States,38.946658,-76.674494,,MD,,
Grand Forks Defense Fuel Support Point,North Dakota,United States,0,0,,,,
Ramey AF Solar Observatory Research Site,Puerto Rico,Puerto Rico,0,0,,,,
George AFB,California,United States,0,0,,,,
Verona Defense Fuel Support Point,New York,United States,0,0,,,,
Rome Laboratory,New York,United States,0,0,,,,
Brooks AFB,Texas,United States,30.936006,-97.934579,Briggs,TX,Burnet County,78608
Tulelake Radar Site,California,United States,41.93519,-121.58865,Tulelake,CA,Siskiyou County,96134
Jonathan Dickinson Tracking Annex,Florida,United States,0,0,,,,
Dania Beach (Lauderdale),Florida,United States,26.052311,-80.143934,Dania Beach,FL,Broward County,33004
Finegayan,Guam,Guam,13.438296,144.77295,,GU,,
Bridgeport,California,United States,38.248505,-119.19876,Bridgeport,CA,Mono County,93517
Haarp Research Station,Alaska,United States,63.346191,-152.837069,,AK,,
Kingsley Field Cantonement Site 1,Oregon,United States,0,0,,,,
Tooele Army Depot,Utah,United States,40.53078,-112.29828,Tooele,UT,Tooele County,84074
Umatilla Chemical Depot,Oregon,United States,45.91735,-119.34252,Umatilla,OR,Umatilla County,97882
CSO NAS Alameda,California,United States,37.770563,-122.264779,Alameda,CA,Alameda County,94501
NAS JRB NOLA,Louisiana,United States,0,0,,,,
Fort Carson Weapons Range,Colorado,United States,0,0,,,,
Stratford Army Engine Plant,Connecticut,United States,0,0,,,,
US Army Soldier Systems Center Natick,Massachusetts,United States,42.28343,-71.3495,Natick,MA,Middlesex County,1760
Pohakuloa Training Area,Hawaii,United States,19.828171,-155.49504,,HI,,
Fort Gillem,Georgia,United States,0,0,,,,
Utah Test and Training Range South UT,Utah,United States,0,0,,,,
Air Force Plant 42,California,United States,37.289085,-120.317156,Planada,CA,Merced County,95365
CSO Hunters Point Annex,California,United States,0,0,,,,
Air Force Plant 44,Arizona,United States,0,0,,,,
Air Force Plant 4,Texas,United States,0,0,,,,
Air Force Plant 6,Georgia,United States,0,0,,,,
USAF Expeditionary Center,New Jersey,United States,0,0,,,,
Chanute AFB,Illinois,United States,0,0,,,,
DFAS Annex,Maine,United States,45.409279,-68.666598,,ME,,
CSO NAS South Weymouth,Massachusetts,United States,42.20794,-70.95514,Weymouth,MA,Norfolk County,2188
Pico Del Este - AFWTF,Puerto Rico,Puerto Rico,0,0,,,,
Pineros Island,Puerto Rico,Puerto Rico,0,0,,,,
NAS Brunswick ME,Maine,United States,43.91172,-69.9405,Brunswick,ME,Cumberland County,4011
NAS JRB Willow Grove PA,Pennsylvania,United States,40.157452,-75.124753,Willow Grove,PA,Montgomery County,19090
NSA South Potomac,Virginia,United States,0,0,,,,
NSGA Sabana Seca PR,Puerto Rico,Puerto Rico,0,0,,,,
Fleming Key Magazine,Florida,United States,0,0,,,,
Fort Allen Puerto Rico,Puerto Rico,Puerto Rico,0,0,,,,
NOLF Choctaw,Florida,United States,30.367422,-86.106051,Choctaw,FL,Walton County,32454
NAS Fort Worth JRB TX,Texas,United States,32.767044,-97.303032,Fort Worth,TX,Tarrant County,76111
Kalaeloa,Hawaii,United States,20.24232,-155.83323,Hawi,HI,Hawaii County,96719
Waikele,Hawaii,United States,19.873144,-155.79636,Waikoloa,HI,Hawaii County,96738
Hickam Petrol Strg Ann,Hawaii,United States,0,0,,,,
Det Concord (BRAC),California,United States,37.953672,-122.022872,Concord,CA,Contra Costa County,94518
CSO NSY Long Beach Ca,California,United States,33.804309,-118.200957,Long Beach,CA,Los Angeles County,90801
CSO NS Treasure Island,California,United States,0,0,,,,
CSO NSY Mare Island,California,United States,40.026261,-123.490301,Island Mountain,CA,Trinity County,95440
Norwalk Fuel Complex,California,United States,33.906763,-118.076549,Norwalk,CA,Los Angeles County,90650
Site 3 NS Long Beach,California,United States,33.804309,-118.200957,Long Beach,CA,Los Angeles County,90801
Tiyan,Guam,Guam,13.438296,144.77295,,GU,,
Cabeza De Perro,Puerto Rico,Puerto Rico,0,0,,,,
NWIRP Bedford MA,Massachusetts,United States,42.49065,-71.27617,Bedford,MA,Middlesex County,1730
Randsburg Wash Area,California,United States,35.38661,-117.715928,Randsburg,CA,Kern County,93554
Talofofo,Guam,Guam,13.444257,144.786297,Talofofo,GU,Guam,96930
Mount Pirata,Puerto Rico,Puerto Rico,0,0,,,,
West Bank,Louisiana,United States,0,0,,,,
Mark Center,Virginia,United States,38.272028,-77.647788,Margo,VA,Spotsylvania County,22553
